{
  "type": "FeatureCollection",
  "features": [
    {
      "type": "Feature",
      "properties": {
        "norad_id": 34446,
        "name": "COSMOS 2251 DEB",
        "group": "cosmos-2251-debris",
        "lat": 26.465384133815892,
        "lon": 43.03636462238676,
        "alt_km": 754.7698341029109,
        "timestamp": "2025-12-24T16:52:41.931832+00:00",
        "meta_object_name": "COSMOS 2251 DEB",
        "meta_object_id": "1993-036SP",
        "meta_epoch": "2025-12-24T03:29:51.067680",
        "meta_mean_motion": 14.4936466,
        "meta_eccentricity": 0.00505822,
        "meta_inclination": 74.0415,
        "meta_ra_of_asc_node": 35.8917,
        "meta_arg_of_pericenter": 171.1781,
        "meta_mean_anomaly": 189.0281,
        "meta_ephemeris_type": 0,
        "meta_classification_type": "U",
        "meta_norad_cat_id": 34446,
        "meta_element_set_no": 999,
        "meta_rev_at_epoch": 88859,
        "meta_bstar": 0.00011248998,
        "meta_mean_motion_dot": 4.08e-06,
        "meta_mean_motion_ddot": 0,
        "tle_line1": "1 34446U 93036SP  25358.14572995  .00000408  00000+0  11249-3 0  9998",
        "tle_line2": "2 34446  74.0415  35.8917 0050582 171.1781 189.0281 14.49364660888593"
      },
      "geometry": {
        "type": "Point",
        "coordinates": [
          43.03636462238676,
          26.465384133815892
        ]
      }
    },
    {
      "type": "Feature",
      "properties": {
        "norad_id": 34449,
        "name": "COSMOS 2251 DEB",
        "group": "cosmos-2251-debris",
        "lat": -12.298470727754353,
        "lon": 42.84038431962663,
        "alt_km": 586.2962125360991,
        "timestamp": "2025-12-24T16:52:41.931843+00:00",
        "meta_object_name": "COSMOS 2251 DEB",
        "meta_object_id": "1993-036SS",
        "meta_epoch": "2025-12-24T04:21:00.472608",
        "meta_mean_motion": 14.95463737,
        "meta_eccentricity": 0.00227098,
        "meta_inclination": 74.0325,
        "meta_ra_of_asc_node": 47.4724,
        "meta_arg_of_pericenter": 83.4093,
        "meta_mean_anomaly": 335.0183,
        "meta_ephemeris_type": 0,
        "meta_classification_type": "U",
        "meta_norad_cat_id": 34449,
        "meta_element_set_no": 999,
        "meta_rev_at_epoch": 88864,
        "meta_bstar": 0.002300467,
        "meta_mean_motion_dot": 0.00025646,
        "meta_mean_motion_ddot": 0,
        "tle_line1": "1 34449U 93036SS  25358.18125547  .00025646  00000+0  23005-2 0  9995",
        "tle_line2": "2 34449  74.0325  47.4724 0022709  83.4093 335.0183 14.95463737888648"
      },
      "geometry": {
        "type": "Point",
        "coordinates": [
          42.84038431962663,
          -12.298470727754353
        ]
      }
    },
    {
      "type": "Feature",
      "properties": {
        "norad_id": 34451,
        "name": "COSMOS 2251 DEB",
        "group": "cosmos-2251-debris",
        "lat": -10.90212915661344,
        "lon": 60.565562797731914,
        "alt_km": 581.8434085679219,
        "timestamp": "2025-12-24T16:52:41.931853+00:00",
        "meta_object_name": "COSMOS 2251 DEB",
        "meta_object_id": "1993-036SU",
        "meta_epoch": "2025-12-24T04:05:27.636000",
        "meta_mean_motion": 14.96197378,
        "meta_eccentricity": 0.00239897,
        "meta_inclination": 74.0456,
        "meta_ra_of_asc_node": 64.7996,
        "meta_arg_of_pericenter": 77.7269,
        "meta_mean_anomaly": 282.6601,
        "meta_ephemeris_type": 0,
        "meta_classification_type": "U",
        "meta_norad_cat_id": 34451,
        "meta_element_set_no": 999,
        "meta_rev_at_epoch": 88806,
        "meta_bstar": 0.0026934204,
        "meta_mean_motion_dot": 0.00030643,
        "meta_mean_motion_ddot": 0,
        "tle_line1": "1 34451U 93036SU  25358.17045875  .00030643  00000+0  26934-2 0  9999",
        "tle_line2": "2 34451  74.0456  64.7996 0023989  77.7269 282.6601 14.96197378888065"
      },
      "geometry": {
        "type": "Point",
        "coordinates": [
          60.565562797731914,
          -10.90212915661344
        ]
      }
    },
    {
      "type": "Feature",
      "properties": {
        "norad_id": 34452,
        "name": "COSMOS 2251 DEB",
        "group": "cosmos-2251-debris",
        "lat": 42.314396252976636,
        "lon": 173.16310741267705,
        "alt_km": 570.3903724540651,
        "timestamp": "2025-12-24T16:52:41.931864+00:00",
        "meta_object_name": "COSMOS 2251 DEB",
        "meta_object_id": "1993-036SV",
        "meta_epoch": "2025-12-24T04:45:26.434368",
        "meta_mean_motion": 15.11989315,
        "meta_eccentricity": 0.006433,
        "meta_inclination": 74.0321,
        "meta_ra_of_asc_node": 159.0983,
        "meta_arg_of_pericenter": 232.8502,
        "meta_mean_anomaly": 303.7342,
        "meta_ephemeris_type": 0,
        "meta_classification_type": "U",
        "meta_norad_cat_id": 34452,
        "meta_element_set_no": 999,
        "meta_rev_at_epoch": 90835,
        "meta_bstar": 0.0010077508,
        "meta_mean_motion_dot": 0.00018193,
        "meta_mean_motion_ddot": 0,
        "tle_line1": "1 34452U 93036SV  25358.19822262  .00018193  00000+0  10078-2 0  9993",
        "tle_line2": "2 34452  74.0321 159.0983 0064330 232.8502 303.7342 15.11989315908350"
      },
      "geometry": {
        "type": "Point",
        "coordinates": [
          173.16310741267705,
          42.314396252976636
        ]
      }
    },
    {
      "type": "Feature",
      "properties": {
        "norad_id": 34454,
        "name": "COSMOS 2251 DEB",
        "group": "cosmos-2251-debris",
        "lat": 3.2836793668674646,
        "lon": 74.66575158973352,
        "alt_km": 783.9750924215532,
        "timestamp": "2025-12-24T16:52:41.931874+00:00",
        "meta_object_name": "COSMOS 2251 DEB",
        "meta_object_id": "1993-036SX",
        "meta_epoch": "2025-12-24T04:22:38.648928",
        "meta_mean_motion": 14.38825626,
        "meta_eccentricity": 0.00359493,
        "meta_inclination": 74.0585,
        "meta_ra_of_asc_node": 256.5643,
        "meta_arg_of_pericenter": 316.8401,
        "meta_mean_anomaly": 42.9936,
        "meta_ephemeris_type": 0,
        "meta_classification_type": "U",
        "meta_norad_cat_id": 34454,
        "meta_element_set_no": 999,
        "meta_rev_at_epoch": 88232,
        "meta_bstar": 0.00021721982,
        "meta_mean_motion_dot": 6.47e-06,
        "meta_mean_motion_ddot": 0,
        "tle_line1": "1 34454U 93036SX  25358.18239177  .00000647  00000+0  21722-3 0  9995",
        "tle_line2": "2 34454  74.0585 256.5643 0035949 316.8401  42.9936 14.38825626882326"
      },
      "geometry": {
        "type": "Point",
        "coordinates": [
          74.66575158973352,
          3.2836793668674646
        ]
      }
    },
    {
      "type": "Feature",
      "properties": {
        "norad_id": 34459,
        "name": "COSMOS 2251 DEB",
        "group": "cosmos-2251-debris",
        "lat": -31.206689557312735,
        "lon": -136.58530740582037,
        "alt_km": 772.7005795499626,
        "timestamp": "2025-12-24T16:52:41.931886+00:00",
        "meta_object_name": "COSMOS 2251 DEB",
        "meta_object_id": "1993-036TC",
        "meta_epoch": "2025-12-23T08:27:26.889984",
        "meta_mean_motion": 14.00515123,
        "meta_eccentricity": 0.01921173,
        "meta_inclination": 74.0784,
        "meta_ra_of_asc_node": 235.7062,
        "meta_arg_of_pericenter": 303.0931,
        "meta_mean_anomaly": 55.1885,
        "meta_ephemeris_type": 0,
        "meta_classification_type": "U",
        "meta_norad_cat_id": 34459,
        "meta_element_set_no": 999,
        "meta_rev_at_epoch": 85860,
        "meta_bstar": 0.00036480371,
        "meta_mean_motion_dot": 6.1e-06,
        "meta_mean_motion_ddot": 0,
        "tle_line1": "1 34459U 93036TC  25357.35239456  .00000610  00000+0  36480-3 0  9995",
        "tle_line2": "2 34459  74.0784 235.7062 0192117 303.0931  55.1885 14.00515123858603"
      },
      "geometry": {
        "type": "Point",
        "coordinates": [
          -136.58530740582037,
          -31.206689557312735
        ]
      }
    },
    {
      "type": "Feature",
      "properties": {
        "norad_id": 34464,
        "name": "COSMOS 2251 DEB",
        "group": "cosmos-2251-debris",
        "lat": -6.847967758497615,
        "lon": -125.205693737298,
        "alt_km": 476.7232053453499,
        "timestamp": "2025-12-24T16:52:41.931901+00:00",
        "meta_object_name": "COSMOS 2251 DEB",
        "meta_object_id": "1993-036TH",
        "meta_epoch": "2025-12-24T05:04:02.299008",
        "meta_mean_motion": 15.28657162,
        "meta_eccentricity": 0.00141041,
        "meta_inclination": 73.9883,
        "meta_ra_of_asc_node": 53.8659,
        "meta_arg_of_pericenter": 236.6213,
        "meta_mean_anomaly": 123.364,
        "meta_ephemeris_type": 0,
        "meta_classification_type": "U",
        "meta_norad_cat_id": 34464,
        "meta_element_set_no": 999,
        "meta_rev_at_epoch": 90015,
        "meta_bstar": 0.002998465,
        "meta_mean_motion_dot": 0.00084749,
        "meta_mean_motion_ddot": 0,
        "tle_line1": "1 34464U 93036TH  25358.21113772  .00084749  00000+0  29985-2 0  9995",
        "tle_line2": "2 34464  73.9883  53.8659 0014104 236.6213 123.3640 15.28657162900157"
      },
      "geometry": {
        "type": "Point",
        "coordinates": [
          -125.205693737298,
          -6.847967758497615
        ]
      }
    }
  ]
}